STARLINK-32524          
1 62159C 24224W   26106.91993056 -.00010854  00000+0 -39327-3 0  1060
2 62159  43.0003 305.6706 0001379 272.3524 200.3215 15.27572364    13
STARLINK-32484          
1 62160C 24224X   26106.99423611  .00051484  00000+0  18653-2 0  1065
2 62160  43.0023 302.0616 0000840 284.5597 121.3773 15.27543040    15
STARLINK-32497          
1 62161C 24224Y   26106.98659722  .00055131  00000+0  19972-2 0  1067
2 62161  43.0005 305.1922 0001563 275.4408 246.7188 15.27544919    11
STARLINK-32526          
1 62162C 24224Z   26106.94701389  .00010948  00000+0  39667-3 0  1062
2 62162  43.0006 305.4691 0001394 274.0901   8.9219 15.27562221    13
STARLINK-32523          
1 62165C 24225C   26106.99284722 -.00036060  00000+0 -30222-2 0  1060
2 62165  70.0008  67.9564 0003717 264.4561 341.2555 14.98343251    16
STARLINK-32551          
1 62166C 24225D   26106.95048611 -.00027116  00000+0 -22719-2 0  1066
2 62166  70.0011  67.9206 0002977 267.9379 244.3200 14.98353613    19
STARLINK-32506          
1 62167C 24225E   26106.97340278 -.00031935  00000+0 -26759-2 0  1065
2 62167  70.0016  68.1109 0002899 267.4392 143.2941 14.98353494    19
STARLINK-32562          
1 62168C 24225F   26106.94284722 -.00016709  00000+0 -13999-2 0  1068
2 62168  70.0011  68.0066 0003551 264.6711 138.8709 14.98349316    16
STARLINK-32558          
1 62169C 24225G   26106.99284722 -.00037424  00000+0 -31360-2 0  1063
2 62169  70.0009  67.9304 0002955 267.8913   0.2501 14.98353146    11
STARLINK-32538          
1 62170C 24225H   26106.94979167 -.00019022  00000+0 -15934-2 0  1067
2 62170  70.0011  68.1175 0002622 264.1430  64.2142 14.98358273    17
STARLINK-32257          
1 62171C 24225J   26106.95604167 -.00030387  00000+0 -25456-2 0  1061
2 62171  70.0011  67.8282 0003610 265.9296 343.8022 14.98359191    13
STARLINK-32407          
1 62172C 24225K   26106.91784722 -.00006467  00000+0 -54178-3 0  1060
2 62172  70.0009  68.0185 0002754 268.0864  45.6111 14.98348203    17
STARLINK-32575          
1 62173C 24225L   26106.93104167 -.00028216  00000+0 -23644-2 0  1061
2 62173  70.0017  57.8438 0002997 267.7113 242.5065 14.98348743    11
STARLINK-32552          
1 62174C 24225M   26107.00604167 -.00048347  00000+0 -40505-2 0  1079
2 62174  70.0014  67.7288 0003432 267.0512 229.7903 14.98365263    17
STARLINK-32534          
1 62175C 24225N   26106.95951389 -.00024049  00000+0 -20148-2 0  1067
2 62175  70.0014  68.1190 0003679 264.8066  93.5423 14.98351777    16
STARLINK-32516          
1 62176C 24225P   26106.95048611 -.00018987  00000+0 -15909-2 0  1066
2 62176  70.0009  68.0886 0003397 267.4403  87.2421 14.98345320    18
STARLINK-32542          
1 62177C 24225Q   26106.92548611 -.00008241  00000+0 -68997-3 0  1067
2 62177  70.0008  68.0744 0002918 265.5442  21.8365 14.98373980    15
STARLINK-32600          
1 62178C 24225R   26107.00048611 -.00047890  00000+0 -40121-2 0  1075
2 62178  70.0016  57.9666 0003825 267.1563 347.3961 14.98364561    18
STARLINK-32584          
1 62179C 24225S   26106.97826389 -.00036010  00000+0 -30172-2 0  1063
2 62179  70.0013  67.8307 0002882 268.5257 348.5307 14.98357041    17
STARLINK-32587          
1 62180C 24225T   26106.99562500 -.00042065  00000+0 -35241-2 0  1068
2 62180  70.0011  67.6882 0002977 270.4548 147.6446 14.98364054    17
STARLINK-32602          
1 62181C 24225U   26106.95118056 -.00034716  00000+0 -29090-2 0  1067
2 62181  70.0017  57.9923 0003282 268.7380 169.9845 14.98352323    12
STARLINK-32565          
1 62182C 24225V   26106.94423611 -.00023169  00000+0 -19412-2 0  1060
2 62182  70.0009  67.8090 0002865 265.8253 325.2657 14.98350951    15
STARLINK-32589          
1 62183C 24225W   26107.00395833 -.00044896  00000+0 -37614-2 0  1078
2 62183  70.0010  68.0557 0003600 263.9228 289.8513 14.98363051    19
STARLINK-32581          
1 62184C 24225X   26106.99284722 -.00040022  00000+0 -33535-2 0  1064
2 62184  70.0018  57.7866 0002364 260.1801 133.1412 14.98359069    11
STARLINK-32686          
1 62192C 24229A   26106.96993056 -.00031744  00000+0 -11488-2 0  1065
2 62192  43.0025  50.9067 0000795 258.7007 250.8698 15.27621261    15
STARLINK-32688          
1 62193C 24229B   26106.91645833 -.00002572  00000+0 -93138-4 0  1069
2 62193  43.0030  54.8948 0000947 185.9308 292.9502 15.27582864    13
STARLINK-32684          
1 62194C 24229C   26106.95118056 -.00026766  00000+0 -96918-3 0  1065
2 62194  43.0006  54.3571 0001164 265.9297 185.6239 15.27602212    17
STARLINK-32672          
1 62195C 24229D   26107.00534722 -.00030506  00000+0 -11050-2 0  1076
2 62195  43.0015  54.2411 0000930 261.9835  49.9623 15.27593851    11
STARLINK-32682          
1 62196C 24229E   26107.00256944 -.00080172  00000+0 -29040-2 0  1076
2 62196  43.0038  21.6723 0001318 268.7386  97.1031 15.27616318    10
STARLINK-32663          
1 62197C 24229F   26106.95812500 -.00028580  00000+0 -10349-2 0  1062
2 62197  43.0038  54.9406 0001351 265.8410 322.1762 15.27600424    14
STARLINK-32640          
1 62198C 24229G   26106.96645833 -.00041708  00000+0 -15103-2 0  1067
2 62198  43.0009  54.3575 0001245 265.8449 234.4579 15.27607199    15
STARLINK-32653          
1 62199C 24229H   26106.96368056 -.00046375  00000+0 -16796-2 0  1061
2 62199  43.0044  47.6868 0001472 266.3176 100.2088 15.27603910    12
STARLINK-32647          
1 62200C 24229J   26106.97548611 -.00035690  00000+0 -12925-2 0  1060
2 62200  43.0035  54.5923 0001125 263.7503 165.9853 15.27601545    14
STARLINK-32667          
1 62201C 24229K   26106.92756944 -.00007626  00000+0 -27619-3 0  1061
2 62201  43.0018  54.3910 0001390 263.2090 100.7927 15.27585359    13
STARLINK-32655          
1 62202C 24229L   26106.91437500 -.00006315  00000+0 -22868-3 0  1060
2 62202  43.0044  55.0853 0001330 263.7476 125.8634 15.27588851    17
STARLINK-32665          
1 62203C 24229M   26106.91645833 -.00002039  00000+0 -73835-4 0  1061
2 62203  43.0026  54.8411 0001183 257.9933 242.1164 15.27581727    10
STARLINK-32664          
1 62204C 24229N   26106.94284722  .00040097  00000+0  90309-3 0  1069
2 62204  42.9983  51.0607 0014596 185.6360 169.1327 15.42288702    13
STARLINK-32660          
1 62205C 24229P   26106.99493056 -.00063979  00000+0 -23166-2 0  1069
2 62205  43.0045  40.1961 0001366 267.1948  82.8984 15.27619654    13
STARLINK-32448          
1 62206C 24229Q   26106.93034722 -.00009417  00000+0 -34098-3 0  1069
2 62206  43.0016  54.4247 0001102 255.1837 102.8824 15.27592197    17
STARLINK-32430          
1 62207C 24229R   26106.96229167 -.00028693  00000+0 -10390-2 0  1067
2 62207  43.0046  51.2847 0001354 268.6738  57.4553 15.27599688    16
STARLINK-32675          
1 62208C 24229S   26106.95256944 -.00014835  00000+0 -53728-3 0  1066
2 62208  43.0024  54.5845 0000933 250.1966 109.9531 15.27588665    10
STARLINK-32671          
1 62209C 24229T   26106.91993056  .00002386  00000+0  86398-4 0  1061
2 62209  43.0033  55.2363 0001464 264.1838  78.1818 15.27588517    18
STARLINK-32670          
1 62210C 24229U   26106.96437500 -.00022596  00000+0 -81845-3 0  1063
2 62210  43.0010  54.4142 0001143 261.5361 206.0651 15.27588905    15
STARLINK-32642          
1 62211C 24229V   26106.94215278 -.00015353  00000+0 -55600-3 0  1061
2 62211  43.0007  54.4581 0000947 250.8690 129.7481 15.27592379    18
STARLINK-32668          
1 62212C 24229W   26106.97687500 -.00047431  00000+0 -17179-2 0  1066
2 62212  43.0042  51.2531 0001388 267.7567 117.4299 15.27602802    12
STARLINK-32669          
1 62213C 24229X   26107.00187500 -.00059212  00000+0 -21446-2 0  1070
2 62213  43.0045  54.6404 0001309 268.1552 221.9831 15.27609460    14
STARLINK-32666          
1 62214C 24229Y   26107.00534722 -.00064005  00000+0 -23181-2 0  1077
2 62214  43.0036  54.7036 0001357 268.1574 205.7249 15.27612750    13
STARLINK-32662          
1 62215C 24229Z   26106.99076389 -.00044562  00000+0 -16141-2 0  1068
2 62215  43.0045  54.6024 0001263 269.2682 202.1286 15.27598830    12
STARLINK-11394 [DTC]    
1 62218C 24231A   26106.95743056  .00071722  00000+0  59059-3 0  1064
2 62218  53.1566 272.6332 0001063  76.9806 214.3501 15.69681969    15
STARLINK-11490 [DTC]    
1 62219C 24231B   26107.00187500  .00041549  00000+0  34225-3 0  1071
2 62219  53.1567 272.4698 0001094  72.1258  82.7678 15.69688980    15
STARLINK-11466 [DTC]    
1 62220C 24231C   26106.99770833  .00049287  00000+0  40596-3 0  1061
2 62220  53.1575 272.6022 0000248  72.0782   3.7810 15.69687591    18
STARLINK-11468 [DTC]    
1 62221C 24231D   26106.99562500  .00047324  00000+0  38995-3 0  1062
2 62221  53.1571 272.7258 0001049  72.1913 296.4185 15.69677663    19
STARLINK-11488 [DTC]    
1 62222C 24231E   26106.99284722  .00051710  00000+0  42590-3 0  1060
2 62222  53.1569 272.5686 0001087  79.5140 356.6019 15.69686773    12
STARLINK-11483 [DTC]    
1 62223C 24231F   26107.00951389  .00041041  00000+0  33798-3 0  1071
2 62223  53.1569 272.0903 0001030  74.9097 289.5884 15.69695893    15
STARLINK-11492 [DTC]    
1 62224C 24231G   26106.97340278  .00059462  00000+0  48994-3 0  1065
2 62224  53.1571 272.7897 0001059  78.4121 192.2808 15.69673499    10
STARLINK-11471 [DTC]    
1 62225C 24231H   26106.93937500  .00058597  00000+0  48280-3 0  1068
2 62225  53.1570 272.5041 0000935  79.6937 220.4945 15.69674868    16
STARLINK-11475 [DTC]    
1 62226C 24231J   26107.00534722  .00040992  00000+0  33753-3 0  1077
2 62226  53.1562 272.2222 0001008  74.7433 210.7244 15.69698769    15
STARLINK-11469 [DTC]    
1 62227C 24231K   26106.94631944  .00075393  00000+0  62035-3 0  1061
2 62227  53.1563 272.6264 0001074  88.6659 167.6029 15.69698452    14
STARLINK-11476 [DTC]    
1 62228C 24231L   26106.97409722  .00050451  00000+0  41571-3 0  1062
2 62228  53.1569 272.2061 0001047  71.4074 120.5883 15.69676909    12
